NORAD_CAT_ID,OBJECT_NAME,OBJECT_TYPE,EPOCH,MEAN_MOTION,ECCENTRICITY,INCLINATION,RA_OF_ASC_NODE,ARG_OF_PERICENTER,MEAN_ANOMALY,BSTAR,MEAN_MOTION_DOT,MEAN_MOTION_DDOT,TLE_LINE0,TLE_LINE1,TLE_LINE2,SEMIMAJOR_AXIS,PERIOD,APOGEE,PERIGEE,DECAYED
52372.0,STARLINK-3796,PAYLOAD,2022-08-03 06:00:00,15.16040543,0.0001478,53.2174,329.9388,55.6017,36.4697,-0.059614,-0.01074675,0.0,0 STARLINK-3796,1 52372U 22045AT  22215.25001157 -.01074675  00000-0 -59614-1 0  9993,2 52372  53.2174 329.9388 0001478  55.6017  36.4697 15.16040543 17472,6895.958000000001,94.984,518.8430000000002,516.804,0.0
52372.0,STARLINK-3796,PAYLOAD,2022-08-03 14:00:01,15.1528236,0.0001689,53.2175,328.4287,48.2056,63.6493,-0.061022,-0.01076385,0.0,0 STARLINK-3796,1 52372U 22045AT  22215.58334491 -.01076385  00000-0 -61022-1 0  9995,2 52372  53.2175 328.4287 0001689  48.2056  63.6493 15.15282360  1305,6898.2580000000025,95.032,521.289,518.9580000000002,0.0
52372.0,STARLINK-3796,PAYLOAD,2022-08-03 22:00:01,15.145221,0.0001457,53.2173,326.9179,62.8753,67.9159,-0.062259,-0.01074784,0.0,0 STARLINK-3796,1 52372U 22045AT  22215.91668981 -.01074784  00000-0 -62259-1 0  9990,2 52372  53.2173 326.9179 0001457  62.8753  67.9159 15.14522100  1309,6900.566999999999,95.079,523.437,521.4259999999998,0.0
52372.0,STARLINK-3796,PAYLOAD,2022-08-04 06:00:00,15.13762902,0.0001644,53.2174,325.4083,53.2882,95.4002,-0.063676,-0.01075803,0.0,0 STARLINK-3796,1 52372U 22045AT  22216.25001157 -.01075803  00000-0 -63676-1 0  9991,2 52372  53.2174 325.4083 0001644  53.2882  95.4002 15.13762902 17623,6902.874,95.127,525.874,523.604,0.0
52372.0,STARLINK-3796,PAYLOAD,2022-08-04 14:00:01,15.13002736,0.0001698,53.2174,323.9035,53.4161,112.3188,-0.06497,-0.01074482,0.0,0 STARLINK-3796,1 52372U 22045AT  22216.58334491 -.01074482  00000-0 -64970-1 0  9997,2 52372  53.2174 323.9035 0001698  53.4161 112.3188 15.13002736  1308,6905.186,95.175,528.2230000000002,525.878,0.0
52372.0,STARLINK-3796,PAYLOAD,2022-08-04 22:00:00,15.12243481,0.000154,53.2173,322.3979,61.4782,120.3916,-0.06638,-0.01074589,0.0,0 STARLINK-3796,1 52372U 22045AT  22216.91667824 -.01074589  00000-0 -66380-1 0  9998,2 52372  53.2173 322.3979 0001540  61.4782 120.3916 15.12243481  1302,6907.496999999999,95.223,530.4259999999998,528.298,0.0
52372.0,STARLINK-3796,PAYLOAD,2022-08-05 06:00:02,15.11484127,0.0001631999999999,53.2174,320.8936,56.8778,140.2772,-0.067835,-0.01075033,0.0,0 STARLINK-3796,1 52372U 22045AT  22217.25002315 -.01075033  00000-0 -67835-1 0  9995,2 52372  53.2174 320.8936 0001632  56.8778 140.2772 15.11484127 17776,6909.81,95.271,532.803,530.547,0.0
52372.0,STARLINK-3796,PAYLOAD,2022-08-05 14:00:01,15.10723384,0.0001763,53.2173,319.394,52.2308,159.2329,-0.069146,-0.01073002,0.0,0 STARLINK-3796,1 52372U 22045AT  22217.58335648 -.01073002  00000-0 -69146-1 0  9990,2 52372  53.2173 319.3940 0001763  52.2308 159.2329 15.10723384  1307,6912.13,95.319,535.2130000000002,532.776,0.0
52372.0,STARLINK-3796,PAYLOAD,2022-08-05 22:00:00,15.09936592,0.0001565999999999,53.2173,317.8937,56.3748,168.4289,-0.066342,-0.0101175,0.0,0 STARLINK-3796,1 52372U 22045AT  22217.91667824 -.01011750  00000-0 -66342-1 0  9998,2 52372  53.2173 317.8937 0001566  56.3748 168.4289 15.09936592  1302,6914.531,95.368,537.4780000000002,535.313,0.0
52372.0,STARLINK-3796,PAYLOAD,2022-08-06 06:00:00,15.09125694,0.0001671,53.2173,316.3946,57.2294,180.0599,-0.025549,-0.00388547,0.0,0 STARLINK-3796,1 52372U 22045AT  22218.25001157 -.00388547  00000-0 -25549-1 0  9991,2 52372  53.2173 316.3946 0001671  57.2294 180.0599 15.09125694 17921,6917.007,95.419,540.028,537.716,0.0
52372.0,STARLINK-3796,PAYLOAD,2022-08-06 12:54:54,15.10706273,0.0002290999999999,53.2125,315.0978,75.4201,284.7046,-0.01978,-0.0031743,0.0,0 STARLINK-3796,1 52372U 22045AT  22218.53813146 -.00317430  00000-0 -19780-1 0  9994,2 52372  53.2125 315.0978 0002291  75.4201 284.7046 15.10706273 17972,6912.182,95.32,535.63,532.4630000000002,0.0
52372.0,STARLINK-3796,PAYLOAD,2022-08-06 20:51:28,15.10370626,0.0001597,53.2133,313.6119,56.4907,303.6239,-0.016907,-0.00270579,0.0,0 STARLINK-3796,1 52372U 22045AT  22218.86908083 -.00270579  00000-0 -16907-1 0  9995,2 52372  53.2133 313.6119 0001597  56.4907 303.6239 15.10370626 18023,6913.206,95.341,536.175,533.967,0.0
52372.0,STARLINK-3796,PAYLOAD,2022-08-07 06:00:00,15.08856979,0.000136,53.2158,311.8978,52.5057,219.6393,-9.8252e-05,-1.852e-05,0.0,0 STARLINK-3796,1 52372U 22045AT  22219.25001157 -.00001852  00000-0 -98252-4 0  9997,2 52372  53.2158 311.8978 0001360  52.5057 219.6393 15.08856979 18073,6917.828,95.436,540.634,538.753,0.0
52372.0,STARLINK-3796,PAYLOAD,2022-08-07 12:44:55,15.0966753,0.0002571,53.2159,310.6375,23.7304,336.3807,-0.0096672999999999,-0.00154344,0.0,0 STARLINK-3796,1 52372U 22045AT  22219.53120105 -.00154344  00000-0 -96673-2 0  9991,2 52372  53.2159 310.6375 0002571  23.7304 336.3807 15.09667530 18129,6915.352,95.385,538.995,535.439,0.0
52372.0,STARLINK-3796,PAYLOAD,2022-08-07 20:41:43,15.09472892,0.0001802,53.2155,309.1475,44.6693,315.4444,-0.0079609,-0.00126947,0.0,0 STARLINK-3796,1 52372U 22045AT  22219.86231450 -.00126947  00000-0 -79609-2 0  9991,2 52372  53.2155 309.1475 0001802  44.6693 315.4444 15.09472892 18173,6915.946999999999,95.398,539.058,536.565,0.0
52372.0,STARLINK-3796,PAYLOAD,2022-08-08 14:00:01,15.08843957,0.0001536,53.2163,305.9139,40.7525,277.848,0.001459,0.00023011,0.0,0 STARLINK-3796,1 52372U 22045AT  22220.58335648  .00023011  00000-0  14590-2 0  9990,2 52372  53.2163 305.9139 0001536  40.7525 277.8480 15.08843957 18273,6917.868,95.437,540.7959999999998,538.6709999999998,0.0
52372.0,STARLINK-3796,PAYLOAD,2022-08-08 22:00:00,15.08886315,0.0001438,53.2162,304.4165,41.2714,288.8805,-0.0015313,-0.00024607,0.0,0 STARLINK-3796,1 52372U 22045AT  22220.91667824 -.00024607  00000-0 -15313-2 0  9999,2 52372  53.2162 304.4165 0001438  41.2714 288.8805 15.08886315  1306,6917.739000000001,95.435,540.599,538.609,0.0
52372.0,STARLINK-3796,PAYLOAD,2022-08-09 14:00:01,15.08852399,0.0001693,53.2163,301.4248,46.0069,307.4037,-0.0029919,-0.00047606,0.0,0 STARLINK-3796,1 52372U 22045AT  22221.58334491 -.00047606  00000-0 -29919-2 0  9995,2 52372  53.2163 301.4248 0001693  46.0069 307.4037 15.08852399  1305,6917.842,95.437,540.879,538.536,0.0
52372.0,STARLINK-3796,PAYLOAD,2022-08-09 22:00:00,15.08823586,0.0001659,53.216,299.9273,50.9249,314.0729,-0.0020078,-0.00032086,0.0,0 STARLINK-3796,1 52372U 22045AT  22221.91667824 -.00032086  00000-0 -20078-2 0  9994,2 52372  53.2160 299.9273 0001659  50.9249 314.0729 15.08823586  1305,6917.931,95.439,540.943,538.648,0.0
52372.0,STARLINK-3796,PAYLOAD,2022-08-10 06:00:00,15.088173199999998,0.0001588,53.2162,298.4308,56.2033,320.3532,0.00061758,9.548e-05,0.0,0 STARLINK-3796,1 52372U 22045AT  22222.25001157  .00009548  00000-0  61758-3 0  9999,2 52372  53.2162 298.4308 0001588  56.2033 320.3532 15.08817320 18535,6917.95,95.439,540.913,538.716,0.0
52372.0,STARLINK-3796,PAYLOAD,2022-08-10 14:00:01,15.08804761,0.0001764999999999,53.2158,296.9362,49.7927,338.3368,0.0016117999999999,0.00025432,0.0,0 STARLINK-3796,1 52372U 22045AT  22222.58334491  .00025432  00000-0  16118-2 0  9994,2 52372  53.2158 296.9362 0001765  49.7927 338.3368 15.08804761  1307,6917.988,95.44,541.0740000000002,538.632,0.0
52372.0,STARLINK-3796,PAYLOAD,2022-08-10 22:00:00,15.08831603,0.0001646,53.2154,295.4385,52.4332,347.2612,-0.0010827999999999,-0.00017476,0.0,0 STARLINK-3796,1 52372U 22045AT  22222.91667824 -.00017476  00000-0 -10828-2 0  9993,2 52372  53.2154 295.4385 0001646  52.4332 347.2612 15.08831603  1307,6917.906,95.438,540.91,538.632,0.0
52372.0,STARLINK-3796,PAYLOAD,2022-08-11 06:00:02,15.088354999999998,0.0001607,53.2153,293.9421,56.544,354.784,-6.627e-05,-1.342e-05,0.0,0 STARLINK-3796,1 52372U 22045AT  22223.25002315 -.00001342  00000-0 -66270-4 0  9998,2 52372  53.2153 293.9421 0001607  56.5440 354.7840 15.08835500 18687,6917.894,95.438,540.871,538.6469999999998,0.0
52372.0,STARLINK-3796,PAYLOAD,2022-08-11 14:00:01,15.0881634,0.0001764999999999,53.215,292.4475,49.9844,12.8756,0.0019887999999999,0.00031485,0.0,0 STARLINK-3796,1 52372U 22045AT  22223.58334491  .00031485  00000-0  19888-2 0  9997,2 52372  53.2150 292.4475 0001765  49.9844  12.8756 15.08816340  1306,6917.953,95.439,541.039,538.597,0.0
52372.0,STARLINK-3796,PAYLOAD,2022-08-12 14:00:01,15.08833739,0.0001802,53.215,287.9583,49.1604,48.4943,0.0027021,0.00042971,0.0,0 STARLINK-3796,1 52372U 22045AT  22224.58334491  .00042971  00000-0  27021-2 0  9998,2 52372  53.2150 287.9583 0001802  49.1604  48.4943 15.08833739 18888,6917.9,95.438,541.011,538.518,0.0
52372.0,STARLINK-3796,PAYLOAD,2022-08-12 20:00:01,15.08847903,0.0001868,53.2149,286.8347,49.305,327.078,-0.0018170999999999,-0.00029098,0.0,0 STARLINK-3796,1 52372U 22045AT  22224.83335648 -.00029098  00000-0 -18171-2 0  9994,2 52372  53.2149 286.8347 0001868  49.3050 327.0780 15.08847903 18929,6917.856,95.437,541.013,538.429,0.0
52372.0,STARLINK-3796,PAYLOAD,2022-08-12 22:00:01,15.08833948,0.0001805,53.2153,286.4602,51.5284,57.757,-3.6142e-05,-8.63e-06,0.0,0 STARLINK-3796,1 52372U 22045AT  22224.91668981 -.00000863  00000-0 -36142-4 0  9991,2 52372  53.2153 286.4602 0001805  51.5284  57.7570 15.08833948  1301,6917.899,95.438,541.013,538.515,0.0
52372.0,STARLINK-3796,PAYLOAD,2022-08-13 14:00:01,15.08818718,0.0001993,53.2157,283.4689,47.6934,84.7116,0.0030052,0.00047837,0.0,0 STARLINK-3796,1 52372U 22045AT  22225.58334491  .00047837  00000-0  30052-2 0  9993,2 52372  53.2157 283.4689 0001993  47.6934  84.7116 15.08818718  1307,6917.945,95.439,541.189,538.432,0.0
52372.0,STARLINK-3796,PAYLOAD,2022-08-13 22:00:00,15.08844263,0.0001865,53.2158,281.9708,51.0471,92.9518,0.00032649,4.912e-05,0.0,0 STARLINK-3796,1 52372U 22045AT  22225.91667824  .00004912  00000-0  32649-3 0  9991,2 52372  53.2158 281.9708 0001865  51.0471  92.9518 15.08844263  1307,6917.8669999999975,95.437,541.023,538.442,0.0
